QIANFAN-35              
1 61568U 24185S   26064.94130928  .00001036  00000+0  41119-3 0  9998
2 61568  88.9745  67.0934 0007443  31.3029 328.8608 14.28118938 82059
QIANFAN-36              
1 61569U 24185T   26064.92781157  .00000117  00000+0  15130-3 0  9996
2 61569  88.9717  72.3623 0007026 145.6123 214.5487 13.55613769 79192
QIANFAN-37              
1 62238U 24232B   26064.94408272  .00000080  00000+0  10570-3 0  9991
2 62238  89.0053  32.9250 0001725  97.1466 262.9881 13.51005330110400
QIANFAN-38              
1 62239U 24232C   26064.89465659  .00000080  00000+0  10544-3 0  9999
2 62239  89.0059  32.8514 0013400 322.4926  37.5289 13.51003907110458
QIANFAN-39              
1 62240U 24232D   26064.89121564  .00000475  00000+0  19489-3 0  9990
2 62240  89.0058  27.7967 0016605 158.1394 202.0511 14.25436467113236
QIANFAN-40              
1 62241U 24232E   26064.92757221  .00000081  00000+0  10679-3 0  9995
2 62241  89.0088  32.4559 0012705 331.5460  28.4996 13.51003106110825
QIANFAN-41              
1 62242U 24232F   26064.93584319  .00000087  00000+0  11677-3 0  9998
2 62242  89.0058  32.7974 0012690 318.4385  41.5800 13.51004791110483
QIANFAN-42              
1 62243U 24232G   26064.94213199  .00000441  00000+0  18382-3 0  9999
2 62243  89.0056  27.8505 0015227 163.3852 196.7842 14.24530367113219
QIANFAN-43              
1 62244U 24232H   26064.93168661  .00000082  00000+0  10863-3 0  9999
2 62244  89.0062  32.8668 0014367 323.3032  36.7134 13.51004807 79093
QIANFAN-44              
1 62245U 24232J   26064.91935244  .00000071  00000+0  90834-4 0  9992
2 62245  89.0060  32.6774 0012503 321.1022  38.9228 13.51002742110565
QIANFAN-45              
1 62246U 24232K   26064.88646412  .00000068  00000+0  87389-4 0  9992
2 62246  89.0064  32.8302 0013151 320.3984  39.6205 13.51000416110487
QIANFAN-46              
1 62247U 24232L   26064.91110871  .00000086  00000+0  11447-3 0  9993
2 62247  89.0060  32.8933 0013386 326.2932  33.7367 13.51003415110444
QIANFAN-47              
1 62248U 24232M   26064.91522045  .00000070  00000+0  90541-4 0  9990
2 62248  89.0056  32.8225 0013780 325.1066  34.9180 13.51003264110479
QIANFAN-48              
1 62249U 24232N   26064.95225981  .00000076  00000+0  99680-4 0  9993
2 62249  89.0060  32.8239 0016103 326.7446  33.2692 13.51003445110483
QIANFAN-49              
1 62250U 24232P   26064.93992054  .00000076  00000+0  99031-4 0  9995
2 62250  89.0059  32.8370 0013015 322.3929  37.6311 13.51002529 79073
QIANFAN-50              
1 62251U 24232Q   26064.89053247  .00000080  00000+0  10604-3 0  9996
2 62251  89.0064  32.8546 0014720 323.1693  36.8446 13.51003507 79095
QIANFAN-51              
1 62252U 24232R   26064.94816895  .00000072  00000+0  93433-4 0  9992
2 62252  89.0058  32.8376 0012346 328.3182  31.7225 13.51004304 79097
