[{"OBJECT_NAME":"QIANFAN-35","OBJECT_ID":"2024-185S","EPOCH":"2026-03-05T22:35:29.121792","MEAN_MOTION":14.28118938,"ECCENTRICITY":0.00074436,"INCLINATION":88.9745,"RA_OF_ASC_NODE":67.0934,"ARG_OF_PERICENTER":31.3029,"MEAN_ANOMALY":328.8608,"EPHEMERIS_TYPE":0,"CLASSIFICATION_TYPE":"U","NORAD_CAT_ID":61568,"ELEMENT_SET_NO":999,"REV_AT_EPOCH":8205,"BSTAR":0.00041119052,"MEAN_MOTION_DOT":1.036e-5,"MEAN_MOTION_DDOT":0},{"OBJECT_NAME":"QIANFAN-36","OBJECT_ID":"2024-185T","EPOCH":"2026-03-05T22:16:02.919648","MEAN_MOTION":13.55613769,"ECCENTRICITY":0.0007026,"INCLINATION":88.9717,"RA_OF_ASC_NODE":72.3623,"ARG_OF_PERICENTER":145.6123,"MEAN_ANOMALY":214.5487,"EPHEMERIS_TYPE":0,"CLASSIFICATION_TYPE":"U","NORAD_CAT_ID":61569,"ELEMENT_SET_NO":999,"REV_AT_EPOCH":7919,"BSTAR":0.00015129894,"MEAN_MOTION_DOT":1.17e-6,"MEAN_MOTION_DDOT":0},{"OBJECT_NAME":"QIANFAN-37","OBJECT_ID":"2024-232B","EPOCH":"2026-03-05T22:39:28.747008","MEAN_MOTION":13.5100533,"ECCENTRICITY":0.00017258,"INCLINATION":89.0053,"RA_OF_ASC_NODE":32.925,"ARG_OF_PERICENTER":97.1466,"MEAN_ANOMALY":262.9881,"EPHEMERIS_TYPE":0,"CLASSIFICATION_TYPE":"U","NORAD_CAT_ID":62238,"ELEMENT_SET_NO":999,"REV_AT_EPOCH":11040,"BSTAR":0.00010569526,"MEAN_MOTION_DOT":8.0e-7,"MEAN_MOTION_DDOT":0},{"OBJECT_NAME":"QIANFAN-38","OBJECT_ID":"2024-232C","EPOCH":"2026-03-05T21:28:18.329376","MEAN_MOTION":13.51003907,"ECCENTRICITY":0.00134005,"INCLINATION":89.0059,"RA_OF_ASC_NODE":32.8514,"ARG_OF_PERICENTER":322.4926,"MEAN_ANOMALY":37.5289,"EPHEMERIS_TYPE":0,"CLASSIFICATION_TYPE":"U","NORAD_CAT_ID":62239,"ELEMENT_SET_NO":999,"REV_AT_EPOCH":11045,"BSTAR":0.00010544187,"MEAN_MOTION_DOT":8.0e-7,"MEAN_MOTION_DDOT":0},{"OBJECT_NAME":"QIANFAN-39","OBJECT_ID":"2024-232D","EPOCH":"2026-03-05T21:23:21.031296","MEAN_MOTION":14.25436467,"ECCENTRICITY":0.0016605,"INCLINATION":89.0058,"RA_OF_ASC_NODE":27.7967,"ARG_OF_PERICENTER":158.1394,"MEAN_ANOMALY":202.0511,"EPHEMERIS_TYPE":0,"CLASSIFICATION_TYPE":"U","NORAD_CAT_ID":62240,"ELEMENT_SET_NO":999,"REV_AT_EPOCH":11323,"BSTAR":0.00019489314,"MEAN_MOTION_DOT":4.75e-6,"MEAN_MOTION_DDOT":0},{"OBJECT_NAME":"QIANFAN-40","OBJECT_ID":"2024-232E","EPOCH":"2026-03-05T22:15:42.238944","MEAN_MOTION":13.51003106,"ECCENTRICITY":0.00127052,"INCLINATION":89.0088,"RA_OF_ASC_NODE":32.4559,"ARG_OF_PERICENTER":331.546,"MEAN_ANOMALY":28.4996,"EPHEMERIS_TYPE":0,"CLASSIFICATION_TYPE":"U","NORAD_CAT_ID":62241,"ELEMENT_SET_NO":999,"REV_AT_EPOCH":11082,"BSTAR":0.00010679497,"MEAN_MOTION_DOT":8.1e-7,"MEAN_MOTION_DDOT":0},{"OBJECT_NAME":"QIANFAN-41","OBJECT_ID":"2024-232F","EPOCH":"2026-03-05T22:27:36.851616","MEAN_MOTION":13.51004791,"ECCENTRICITY":0.00126908,"INCLINATION":89.0058,"RA_OF_ASC_NODE":32.7974,"ARG_OF_PERICENTER":318.4385,"MEAN_ANOMALY":41.58,"EPHEMERIS_TYPE":0,"CLASSIFICATION_TYPE":"U","NORAD_CAT_ID":62242,"ELEMENT_SET_NO":999,"REV_AT_EPOCH":11048,"BSTAR":0.00011677153,"MEAN_MOTION_DOT":8.7e-7,"MEAN_MOTION_DDOT":0},{"OBJECT_NAME":"QIANFAN-42","OBJECT_ID":"2024-232G","EPOCH":"2026-03-05T22:36:40.203936","MEAN_MOTION":14.24530367,"ECCENTRICITY":0.00152274,"INCLINATION":89.0056,"RA_OF_ASC_NODE":27.8505,"ARG_OF_PERICENTER":163.3852,"MEAN_ANOMALY":196.7842,"EPHEMERIS_TYPE":0,"CLASSIFICATION_TYPE":"U","NORAD_CAT_ID":62243,"ELEMENT_SET_NO":999,"REV_AT_EPOCH":11321,"BSTAR":0.00018382265,"MEAN_MOTION_DOT":4.41e-6,"MEAN_MOTION_DDOT":0},{"OBJECT_NAME":"QIANFAN-43","OBJECT_ID":"2024-232H","EPOCH":"2026-03-05T22:21:37.723104","MEAN_MOTION":13.51004807,"ECCENTRICITY":0.00143673,"INCLINATION":89.0062,"RA_OF_ASC_NODE":32.8668,"ARG_OF_PERICENTER":323.3032,"MEAN_ANOMALY":36.7134,"EPHEMERIS_TYPE":0,"CLASSIFICATION_TYPE":"U","NORAD_CAT_ID":62244,"ELEMENT_SET_NO":999,"REV_AT_EPOCH":7909,"BSTAR":0.00010863081,"MEAN_MOTION_DOT":8.2e-7,"MEAN_MOTION_DDOT":0},{"OBJECT_NAME":"QIANFAN-44","OBJECT_ID":"2024-232J","EPOCH":"2026-03-05T22:03:52.050816","MEAN_MOTION":13.51002742,"ECCENTRICITY":0.00125037,"INCLINATION":89.006,"RA_OF_ASC_NODE":32.6774,"ARG_OF_PERICENTER":321.1022,"MEAN_ANOMALY":38.9228,"EPHEMERIS_TYPE":0,"CLASSIFICATION_TYPE":"U","NORAD_CAT_ID":62245,"ELEMENT_SET_NO":999,"REV_AT_EPOCH":11056,"BSTAR":9.083386e-5,"MEAN_MOTION_DOT":7.1e-7,"MEAN_MOTION_DDOT":0},{"OBJECT_NAME":"QIANFAN-45","OBJECT_ID":"2024-232K","EPOCH":"2026-03-05T21:16:30.499968","MEAN_MOTION":13.51000416,"ECCENTRICITY":0.00131516,"INCLINATION":89.0064,"RA_OF_ASC_NODE":32.8302,"ARG_OF_PERICENTER":320.3984,"MEAN_ANOMALY":39.6205,"EPHEMERIS_TYPE":0,"CLASSIFICATION_TYPE":"U","NORAD_CAT_ID":62246,"ELEMENT_SET_NO":999,"REV_AT_EPOCH":11048,"BSTAR":8.7388805e-5,"MEAN_MOTION_DOT":6.8e-7,"MEAN_MOTION_DDOT":0},{"OBJECT_NAME":"QIANFAN-46","OBJECT_ID":"2024-232L","EPOCH":"2026-03-05T21:51:59.792544","MEAN_MOTION":13.51003415,"ECCENTRICITY":0.00133861,"INCLINATION":89.006,"RA_OF_ASC_NODE":32.8933,"ARG_OF_PERICENTER":326.2932,"MEAN_ANOMALY":33.7367,"EPHEMERIS_TYPE":0,"CLASSIFICATION_TYPE":"U","NORAD_CAT_ID":62247,"ELEMENT_SET_NO":999,"REV_AT_EPOCH":11044,"BSTAR":0.00011447459,"MEAN_MOTION_DOT":8.6e-7,"MEAN_MOTION_DDOT":0},{"OBJECT_NAME":"QIANFAN-47","OBJECT_ID":"2024-232M","EPOCH":"2026-03-05T21:57:55.046880","MEAN_MOTION":13.51003264,"ECCENTRICITY":0.00137804,"INCLINATION":89.0056,"RA_OF_ASC_NODE":32.8225,"ARG_OF_PERICENTER":325.1066,"MEAN_ANOMALY":34.918,"EPHEMERIS_TYPE":0,"CLASSIFICATION_TYPE":"U","NORAD_CAT_ID":62248,"ELEMENT_SET_NO":999,"REV_AT_EPOCH":11047,"BSTAR":9.0541267e-5,"MEAN_MOTION_DOT":7.0e-7,"MEAN_MOTION_DDOT":0},{"OBJECT_NAME":"QIANFAN-48","OBJECT_ID":"2024-232N","EPOCH":"2026-03-05T22:51:15.247584","MEAN_MOTION":13.51003445,"ECCENTRICITY":0.00161036,"INCLINATION":89.006,"RA_OF_ASC_NODE":32.8239,"ARG_OF_PERICENTER":326.7446,"MEAN_ANOMALY":33.2692,"EPHEMERIS_TYPE":0,"CLASSIFICATION_TYPE":"U","NORAD_CAT_ID":62249,"ELEMENT_SET_NO":999,"REV_AT_EPOCH":11048,"BSTAR":9.9680025e-5,"MEAN_MOTION_DOT":7.6e-7,"MEAN_MOTION_DDOT":0},{"OBJECT_NAME":"QIANFAN-49","OBJECT_ID":"2024-232P","EPOCH":"2026-03-05T22:33:29.134656","MEAN_MOTION":13.51002529,"ECCENTRICITY":0.00130152,"INCLINATION":89.0059,"RA_OF_ASC_NODE":32.837,"ARG_OF_PERICENTER":322.3929,"MEAN_ANOMALY":37.6311,"EPHEMERIS_TYPE":0,"CLASSIFICATION_TYPE":"U","NORAD_CAT_ID":62250,"ELEMENT_SET_NO":999,"REV_AT_EPOCH":7907,"BSTAR":9.9031224e-5,"MEAN_MOTION_DOT":7.6e-7,"MEAN_MOTION_DDOT":0},{"OBJECT_NAME":"QIANFAN-50","OBJECT_ID":"2024-232Q","EPOCH":"2026-03-05T21:22:22.005408","MEAN_MOTION":13.51003507,"ECCENTRICITY":0.00147203,"INCLINATION":89.0064,"RA_OF_ASC_NODE":32.8546,"ARG_OF_PERICENTER":323.1693,"MEAN_ANOMALY":36.8446,"EPHEMERIS_TYPE":0,"CLASSIFICATION_TYPE":"U","NORAD_CAT_ID":62251,"ELEMENT_SET_NO":999,"REV_AT_EPOCH":7909,"BSTAR":0.00010604384,"MEAN_MOTION_DOT":8.0e-7,"MEAN_MOTION_DDOT":0},{"OBJECT_NAME":"QIANFAN-51","OBJECT_ID":"2024-232R","EPOCH":"2026-03-05T22:45:21.797280","MEAN_MOTION":13.51004304,"ECCENTRICITY":0.00123461,"INCLINATION":89.0058,"RA_OF_ASC_NODE":32.8376,"ARG_OF_PERICENTER":328.3182,"MEAN_ANOMALY":31.7225,"EPHEMERIS_TYPE":0,"CLASSIFICATION_TYPE":"U","NORAD_CAT_ID":62252,"ELEMENT_SET_NO":999,"REV_AT_EPOCH":7909,"BSTAR":9.3433158e-5,"MEAN_MOTION_DOT":7.2e-7,"MEAN_MOTION_DDOT":0}]
